{
 "generated_at": "2026-06-16T10:08:45Z",
 "sources": [
  {
   "name": "CelesTrak",
   "url": "https://celestrak.org/NORAD/elements/",
   "license": "frei verfügbar; Attribution. Ursprünglich USSPACECOM/Space-Track."
  },
  {
   "name": "GCAT (J. McDowell, planet4589.org)",
   "url": "https://planet4589.org/space/gcat/",
   "license": "CC-BY 4.0"
  }
 ],
 "satellites": [
  {
   "norad": 32376,
   "name": "COSMO-SKYMED 2",
   "intl": "2007-059A",
   "group": "resource",
   "gcat": {
    "class": "D",
    "category": "IMG-R",
    "owner": "ASI",
    "state": "I"
   },
   "omm": {
    "OBJECT_NAME": "COSMO-SKYMED 2",
    "OBJECT_ID": "2007-059A",
    "EPOCH": "2026-06-16T03:33:40.769856",
    "MEAN_MOTION": 14.82154308,
    "ECCENTRICITY": 0.0001364,
    "INCLINATION": 97.8886,
    "RA_OF_ASC_NODE": 350.7614,
    "ARG_OF_PERICENTER": 86.677,
    "MEAN_ANOMALY": 273.46,
    "EPHEMERIS_TYPE": 0,
    "CLASSIFICATION_TYPE": "U",
    "NORAD_CAT_ID": 32376,
    "ELEMENT_SET_NO": 999,
    "REV_AT_EPOCH": 185,
    "BSTAR": 0.000048994,
    "MEAN_MOTION_DOT": 0.00000338,
    "MEAN_MOTION_DDOT": 0
   }
  },
  {
   "norad": 33412,
   "name": "COSMO-SKYMED 3",
   "intl": "2008-054A",
   "group": "resource",
   "gcat": {
    "class": null,
    "category": null,
    "owner": null,
    "state": null
   },
   "omm": {
    "OBJECT_NAME": "COSMO-SKYMED 3",
    "OBJECT_ID": "2008-054A",
    "EPOCH": "2026-06-16T03:31:53.632992",
    "MEAN_MOTION": 15.06947432,
    "ECCENTRICITY": 0.0014275,
    "INCLINATION": 97.8283,
    "RA_OF_ASC_NODE": 25.7007,
    "ARG_OF_PERICENTER": 270.8408,
    "MEAN_ANOMALY": 89.1183,
    "EPHEMERIS_TYPE": 0,
    "CLASSIFICATION_TYPE": "U",
    "NORAD_CAT_ID": 33412,
    "ELEMENT_SET_NO": 999,
    "REV_AT_EPOCH": 95678,
    "BSTAR": 0.00018359,
    "MEAN_MOTION_DOT": 0.00002684,
    "MEAN_MOTION_DDOT": 0
   }
  },
  {
   "norad": 37216,
   "name": "COSMO-SKYMED 4",
   "intl": "2010-060A",
   "group": "resource",
   "gcat": {
    "class": "D",
    "category": "IMG-R",
    "owner": "ASI",
    "state": "I"
   },
   "omm": {
    "OBJECT_NAME": "COSMO-SKYMED 4",
    "OBJECT_ID": "2010-060A",
    "EPOCH": "2026-06-16T03:51:55.024992",
    "MEAN_MOTION": 14.82152817,
    "ECCENTRICITY": 0.0001422,
    "INCLINATION": 97.8878,
    "RA_OF_ASC_NODE": 350.7757,
    "ARG_OF_PERICENTER": 79.9083,
    "MEAN_ANOMALY": 280.229,
    "EPHEMERIS_TYPE": 0,
    "CLASSIFICATION_TYPE": "U",
    "NORAD_CAT_ID": 37216,
    "ELEMENT_SET_NO": 999,
    "REV_AT_EPOCH": 84441,
    "BSTAR": 0.00003018,
    "MEAN_MOTION_DOT": 0.00000188,
    "MEAN_MOTION_DDOT": 0
   }
  },
  {
   "norad": 44873,
   "name": "CSG-1",
   "intl": "2019-092A",
   "group": "resource",
   "gcat": {
    "class": "D",
    "category": "IMG-R",
    "owner": "MDDI/ASI",
    "state": "I"
   },
   "omm": {
    "OBJECT_NAME": "CSG-1",
    "OBJECT_ID": "2019-092A",
    "EPOCH": "2026-06-16T04:10:08.538816",
    "MEAN_MOTION": 14.82152488,
    "ECCENTRICITY": 0.0001456,
    "INCLINATION": 97.8888,
    "RA_OF_ASC_NODE": 350.7909,
    "ARG_OF_PERICENTER": 89.4381,
    "MEAN_ANOMALY": 270.6999,
    "EPHEMERIS_TYPE": 0,
    "CLASSIFICATION_TYPE": "U",
    "NORAD_CAT_ID": 44873,
    "ELEMENT_SET_NO": 999,
    "REV_AT_EPOCH": 35132,
    "BSTAR": 0.000050692,
    "MEAN_MOTION_DOT": 0.00000351,
    "MEAN_MOTION_DDOT": 0
   }
  },
  {
   "norad": 51444,
   "name": "CSG-2",
   "intl": "2022-008A",
   "group": "resource",
   "gcat": {
    "class": "D",
    "category": "IMG-R",
    "owner": "MDDI/ASI",
    "state": "I"
   },
   "omm": {
    "OBJECT_NAME": "CSG-2",
    "OBJECT_ID": "2022-008A",
    "EPOCH": "2026-06-16T03:21:30.731328",
    "MEAN_MOTION": 14.82156584,
    "ECCENTRICITY": 0.0001444,
    "INCLINATION": 97.8876,
    "RA_OF_ASC_NODE": 350.7527,
    "ARG_OF_PERICENTER": 85.0358,
    "MEAN_ANOMALY": 275.102,
    "EPHEMERIS_TYPE": 0,
    "CLASSIFICATION_TYPE": "U",
    "NORAD_CAT_ID": 51444,
    "ELEMENT_SET_NO": 999,
    "REV_AT_EPOCH": 23643,
    "BSTAR": 0.000087316,
    "MEAN_MOTION_DOT": 0.00000643,
    "MEAN_MOTION_DDOT": 0
   }
  },
  {
   "norad": 67304,
   "name": "CSG-3",
   "intl": "2026-001A",
   "group": "resource",
   "gcat": {
    "class": "D",
    "category": "IMG-R",
    "owner": "MDDI/ASI",
    "state": "I"
   },
   "omm": {
    "OBJECT_NAME": "CSG-3",
    "OBJECT_ID": "2026-001A",
    "EPOCH": "2026-06-15T23:36:44.435232",
    "MEAN_MOTION": 14.82153056,
    "ECCENTRICITY": 0.0001355,
    "INCLINATION": 97.8885,
    "RA_OF_ASC_NODE": 350.603,
    "ARG_OF_PERICENTER": 94.2525,
    "MEAN_ANOMALY": 265.8843,
    "EPHEMERIS_TYPE": 0,
    "CLASSIFICATION_TYPE": "U",
    "NORAD_CAT_ID": 67304,
    "ELEMENT_SET_NO": 999,
    "REV_AT_EPOCH": 2428,
    "BSTAR": 0.000037496,
    "MEAN_MOTION_DOT": 0.00000246,
    "MEAN_MOTION_DDOT": 0
   }
  },
  {
   "norad": 41887,
   "name": "CYGFM01",
   "intl": "2016-078D",
   "group": "weather",
   "gcat": {
    "class": "C",
    "category": "EOSCI",
    "owner": "LARCN/SWRIB",
    "state": "US"
   },
   "omm": {
    "OBJECT_NAME": "CYGFM01",
    "OBJECT_ID": "2016-078D",
    "EPOCH": "2026-06-15T16:39:02.122848",
    "MEAN_MOTION": 15.57292832,
    "ECCENTRICITY": 0.00066272,
    "INCLINATION": 34.9401,
    "RA_OF_ASC_NODE": 271.5487,
    "ARG_OF_PERICENTER": 129.5981,
    "MEAN_ANOMALY": 230.5329,
    "EPHEMERIS_TYPE": 0,
    "CLASSIFICATION_TYPE": "U",
    "NORAD_CAT_ID": 41887,
    "ELEMENT_SET_NO": 999,
    "REV_AT_EPOCH": 52847,
    "BSTAR": 0.00028123088,
    "MEAN_MOTION_DOT": 0.0002124,
    "MEAN_MOTION_DDOT": 0
   }
  },
  {
   "norad": 41886,
   "name": "CYGFM02",
   "intl": "2016-078C",
   "group": "weather",
   "gcat": {
    "class": "C",
    "category": "EOSCI",
    "owner": "LARCN/SWRIB",
    "state": "US"
   },
   "omm": {
    "OBJECT_NAME": "CYGFM02",
    "OBJECT_ID": "2016-078C",
    "EPOCH": "2026-06-15T20:59:27.422016",
    "MEAN_MOTION": 15.64432101,
    "ECCENTRICITY": 0.0007525,
    "INCLINATION": 34.9396,
    "RA_OF_ASC_NODE": 231.6122,
    "ARG_OF_PERICENTER": 184.3737,
    "MEAN_ANOMALY": 175.6924,
    "EPHEMERIS_TYPE": 0,
    "CLASSIFICATION_TYPE": "U",
    "NORAD_CAT_ID": 41886,
    "ELEMENT_SET_NO": 999,
    "REV_AT_EPOCH": 52896,
    "BSTAR": 0.00027484,
    "MEAN_MOTION_DOT": 0.00027394,
    "MEAN_MOTION_DDOT": 0
   }
  },
  {
   "norad": 41891,
   "name": "CYGFM03",
   "intl": "2016-078H",
   "group": "weather",
   "gcat": {
    "class": "C",
    "category": "EOSCI",
    "owner": "LARCN/SWRIB",
    "state": "US"
   },
   "omm": {
    "OBJECT_NAME": "CYGFM03",
    "OBJECT_ID": "2016-078H",
    "EPOCH": "2026-06-15T21:44:38.942592",
    "MEAN_MOTION": 15.60055421,
    "ECCENTRICITY": 0.0006372,
    "INCLINATION": 34.9394,
    "RA_OF_ASC_NODE": 240.0351,
    "ARG_OF_PERICENTER": 170.2723,
    "MEAN_ANOMALY": 189.8127,
    "EPHEMERIS_TYPE": 0,
    "CLASSIFICATION_TYPE": "U",
    "NORAD_CAT_ID": 41891,
    "ELEMENT_SET_NO": 999,
    "REV_AT_EPOCH": 52877,
    "BSTAR": 0.00028065,
    "MEAN_MOTION_DOT": 0.00023549,
    "MEAN_MOTION_DDOT": 0
   }
  },
  {
   "norad": 41885,
   "name": "CYGFM04",
   "intl": "2016-078B",
   "group": "weather",
   "gcat": {
    "class": "C",
    "category": "EOSCI",
    "owner": "LARCN/SWRIB",
    "state": "US"
   },
   "omm": {
    "OBJECT_NAME": "CYGFM04",
    "OBJECT_ID": "2016-078B",
    "EPOCH": "2026-06-15T14:46:35.363712",
    "MEAN_MOTION": 15.6144199,
    "ECCENTRICITY": 0.00064765,
    "INCLINATION": 34.9319,
    "RA_OF_ASC_NODE": 238.7656,
    "ARG_OF_PERICENTER": 180.9512,
    "MEAN_ANOMALY": 179.1202,
    "EPHEMERIS_TYPE": 0,
    "CLASSIFICATION_TYPE": "U",
    "NORAD_CAT_ID": 41885,
    "ELEMENT_SET_NO": 999,
    "REV_AT_EPOCH": 52875,
    "BSTAR": 0.00028651099,
    "MEAN_MOTION_DOT": 0.00025374,
    "MEAN_MOTION_DDOT": 0
   }
  }
 ]
}
